ORBCOMM FM20 [+]        
1 25416U 98046D   24018.59744374  .00001941  00000+0  72734-3 0  9993
2 25416  44.9945  98.1201 0002026 227.9117 132.1557 14.34792332330159
ORBCOMM FM16 [-]        
1 25417U 98046E   24018.69626267  .00002476  00000+0  89931-3 0  9996
2 25417  44.9944  94.2007 0005816 231.1834 128.8494 14.35614699330098
ORBCOMM FM15 [-]        
1 25418U 98046F   24018.28416732  .00002323  00000+0  85094-3 0  9993
2 25418  44.9974  99.9497 0005273 231.2659 128.7717 14.35359816330049
ORBCOMM FM14 [-]        
1 25419U 98046G   24018.34180444  .00002886  00000+0  10426-2 0  9999
2 25419  44.9960  98.9285 0003997 224.6802 245.6208 14.35489539330002
ORBCOMM FM13 [+]        
1 25420U 98046H   24018.59202771  .00002162  00000+0  80301-3 0  9993
2 25420  44.9975 102.0292 0006212 216.9615 143.0805 14.34872736329112
ORBCOMM FM21 [-]        
1 25475U 98053A   24018.88788012  .00001797  00000+0  67638-3 0  9991
2 25475  45.0073 184.8202 0001302 167.9568 192.1311 14.34858491323178
ORBCOMM FM22 [-]        
1 25476U 98053B   24018.55502786  .00002291  00000+0  84122-3 0  9995
2 25476  45.0062 184.0945 0003083 160.8922 199.2041 14.35287590323116
ORBCOMM FM23 [-]        
1 25477U 98053C   24018.57016818  .00002103  00000+0  78285-3 0  9999
2 25477  45.0073 188.7689 0002282 158.0291 202.0654 14.34863483323273
